CCSDS_OMM_VERS = 2.0
CREATION_DATE  = 
ORIGINATOR     = 

OBJECT_NAME    = STARLINK-4430
OBJECT_ID      = 2022-099W
CENTER_NAME    = EARTH
REF_FRAME      = TEME
TIME_SYSTEM    = UTC
MEAN_ELEMENT_THEORY = SGP/SGP4

EPOCH          = 2022-08-29T22:00:00.999936
MEAN_MOTION    = 15.65019359
ECCENTRICITY   = .0001973
INCLINATION    = 97.6556
RA_OF_ASC_NODE = 0.7401
ARG_OF_PERICENTER = 49.1812
MEAN_ANOMALY   = 356.1990

EPHEMERIS_TYPE = 0
CLASSIFICATION_TYPE = U
NORAD_CAT_ID   = 53485
ELEMENT_SET_NO = 999
REV_AT_EPOCH   = 130
BSTAR          = -.13792E-1
MEAN_MOTION_DOT = -.121569E-1
MEAN_MOTION_DDOT = 0

CCSDS_OMM_VERS = 2.0
CREATION_DATE  = 
ORIGINATOR     = 

OBJECT_NAME    = STARLINK-4431
OBJECT_ID      = 2022-099X
CENTER_NAME    = EARTH
REF_FRAME      = TEME
TIME_SYSTEM    = UTC
MEAN_ELEMENT_THEORY = SGP/SGP4

EPOCH          = 2022-08-29T22:00:00.999936
MEAN_MOTION    = 15.64997542
ECCENTRICITY   = .0001779
INCLINATION    = 97.6556
RA_OF_ASC_NODE = 0.7399
ARG_OF_PERICENTER = 60.9458
MEAN_ANOMALY   = 342.4904

EPHEMERIS_TYPE = 0
CLASSIFICATION_TYPE = U
NORAD_CAT_ID   = 53486
ELEMENT_SET_NO = 999
REV_AT_EPOCH   = 130
BSTAR          = -.13798E-1
MEAN_MOTION_DOT = -.1215129E-1
MEAN_MOTION_DDOT = 0

CCSDS_OMM_VERS = 2.0
CREATION_DATE  = 
ORIGINATOR     = 

OBJECT_NAME    = STARLINK-4432
OBJECT_ID      = 2022-099Y
CENTER_NAME    = EARTH
REF_FRAME      = TEME
TIME_SYSTEM    = UTC
MEAN_ELEMENT_THEORY = SGP/SGP4

EPOCH          = 2022-08-29T22:00:00.999936
MEAN_MOTION    = 15.65033695
ECCENTRICITY   = .0001932
INCLINATION    = 97.6556
RA_OF_ASC_NODE = 0.7399
ARG_OF_PERICENTER = 51.3396
MEAN_ANOMALY   = 355.3362

EPHEMERIS_TYPE = 0
CLASSIFICATION_TYPE = U
NORAD_CAT_ID   = 53487
ELEMENT_SET_NO = 999
REV_AT_EPOCH   = 130
BSTAR          = -.13784E-1
MEAN_MOTION_DOT = -.1215663E-1
MEAN_MOTION_DDOT = 0

CCSDS_OMM_VERS = 2.0
CREATION_DATE  = 
ORIGINATOR     = 

OBJECT_NAME    = STARLINK-4421
OBJECT_ID      = 2022-099Z
CENTER_NAME    = EARTH
REF_FRAME      = TEME
TIME_SYSTEM    = UTC
MEAN_ELEMENT_THEORY = SGP/SGP4

EPOCH          = 2022-08-29T22:00:00.999936
MEAN_MOTION    = 15.65011988
ECCENTRICITY   = .0001825
INCLINATION    = 97.6556
RA_OF_ASC_NODE = 0.7401
ARG_OF_PERICENTER = 57.6579
MEAN_ANOMALY   = 347.0744

EPHEMERIS_TYPE = 0
CLASSIFICATION_TYPE = U
NORAD_CAT_ID   = 53488
ELEMENT_SET_NO = 999
REV_AT_EPOCH   = 130
BSTAR          = -.13792E-1
MEAN_MOTION_DOT = -.1215303E-1
MEAN_MOTION_DDOT = 0

CCSDS_OMM_VERS = 2.0
CREATION_DATE  = 
ORIGINATOR     = 

OBJECT_NAME    = STARLINK-4392
OBJECT_ID      = 2022-099AA
CENTER_NAME    = EARTH
REF_FRAME      = TEME
TIME_SYSTEM    = UTC
MEAN_ELEMENT_THEORY = SGP/SGP4

EPOCH          = 2022-08-29T22:00:00.999936
MEAN_MOTION    = 15.65048012
ECCENTRICITY   = .0001854
INCLINATION    = 97.6556
RA_OF_ASC_NODE = 0.7401
ARG_OF_PERICENTER = 56.0084
MEAN_ANOMALY   = 351.9628

EPHEMERIS_TYPE = 0
CLASSIFICATION_TYPE = U
NORAD_CAT_ID   = 53489
ELEMENT_SET_NO = 999
REV_AT_EPOCH   = 130
BSTAR          = -.13775E-1
MEAN_MOTION_DOT = -.121554E-1
MEAN_MOTION_DDOT = 0

CCSDS_OMM_VERS = 2.0
CREATION_DATE  = 
ORIGINATOR     = 

OBJECT_NAME    = STARLINK-4387
OBJECT_ID      = 2022-099AB
CENTER_NAME    = EARTH
REF_FRAME      = TEME
TIME_SYSTEM    = UTC
MEAN_ELEMENT_THEORY = SGP/SGP4

EPOCH          = 2022-08-29T22:00:00.999936
MEAN_MOTION    = 15.65026432
ECCENTRICITY   = .0001865
INCLINATION    = 97.6556
RA_OF_ASC_NODE = 0.7399
ARG_OF_PERICENTER = 55.1515
MEAN_ANOMALY   = 350.8765

EPHEMERIS_TYPE = 0
CLASSIFICATION_TYPE = U
NORAD_CAT_ID   = 53490
ELEMENT_SET_NO = 999
REV_AT_EPOCH   = 130
BSTAR          = -.13786E-1
MEAN_MOTION_DOT = -.1215475E-1
MEAN_MOTION_DDOT = 0

CCSDS_OMM_VERS = 2.0
CREATION_DATE  = 
ORIGINATOR     = 

OBJECT_NAME    = STARLINK-4450
OBJECT_ID      = 2022-099AC
CENTER_NAME    = EARTH
REF_FRAME      = TEME
TIME_SYSTEM    = UTC
MEAN_ELEMENT_THEORY = SGP/SGP4

EPOCH          = 2022-08-29T22:00:00.999936
MEAN_MOTION    = 15.65062362
ECCENTRICITY   = .0001828
INCLINATION    = 97.6556
RA_OF_ASC_NODE = 0.7400
ARG_OF_PERICENTER = 57.9183
MEAN_ANOMALY   = 351.3479

EPHEMERIS_TYPE = 0
CLASSIFICATION_TYPE = U
NORAD_CAT_ID   = 53491
ELEMENT_SET_NO = 999
REV_AT_EPOCH   = 130
BSTAR          = -.13767E-1
MEAN_MOTION_DOT = -.121552E-1
MEAN_MOTION_DDOT = 0

CCSDS_OMM_VERS = 2.0
CREATION_DATE  = 
ORIGINATOR     = 

OBJECT_NAME    = STARLINK-4451
OBJECT_ID      = 2022-099AD
CENTER_NAME    = EARTH
REF_FRAME      = TEME
TIME_SYSTEM    = UTC
MEAN_ELEMENT_THEORY = SGP/SGP4

EPOCH          = 2022-08-29T22:00:00.999936
MEAN_MOTION    = 15.65040865
ECCENTRICITY   = .0001891
INCLINATION    = 97.6556
RA_OF_ASC_NODE = 0.7398
ARG_OF_PERICENTER = 53.6907
MEAN_ANOMALY   = 353.6329

EPHEMERIS_TYPE = 0
CLASSIFICATION_TYPE = U
NORAD_CAT_ID   = 53492
ELEMENT_SET_NO = 999
REV_AT_EPOCH   = 130
BSTAR          = -.1378E-1
MEAN_MOTION_DOT = -.1215641E-1
MEAN_MOTION_DDOT = 0

CCSDS_OMM_VERS = 2.0
CREATION_DATE  = 
ORIGINATOR     = 

OBJECT_NAME    = STARLINK-4361
OBJECT_ID      = 2022-099AE
CENTER_NAME    = EARTH
REF_FRAME      = TEME
TIME_SYSTEM    = UTC
MEAN_ELEMENT_THEORY = SGP/SGP4

EPOCH          = 2022-08-29T22:00:00.999936
MEAN_MOTION    = 15.65076529
ECCENTRICITY   = .000173
INCLINATION    = 97.6556
RA_OF_ASC_NODE = 0.7398
ARG_OF_PERICENTER = 66.3764
MEAN_ANOMALY   = 344.1847

EPHEMERIS_TYPE = 0
CLASSIFICATION_TYPE = U
NORAD_CAT_ID   = 53493
ELEMENT_SET_NO = 999
REV_AT_EPOCH   = 130
BSTAR          = -.13756E-1
MEAN_MOTION_DOT = -.1215222E-1
MEAN_MOTION_DDOT = 0

CCSDS_OMM_VERS = 2.0
CREATION_DATE  = 
ORIGINATOR     = 

OBJECT_NAME    = STARLINK-4340
OBJECT_ID      = 2022-099AF
CENTER_NAME    = EARTH
REF_FRAME      = TEME
TIME_SYSTEM    = UTC
MEAN_ELEMENT_THEORY = SGP/SGP4

EPOCH          = 2022-08-29T22:00:00.999936
MEAN_MOTION    = 15.65055288
ECCENTRICITY   = .0001961
INCLINATION    = 97.6556
RA_OF_ASC_NODE = 0.7399
ARG_OF_PERICENTER = 50.0280
MEAN_ANOMALY   = 358.5907

EPHEMERIS_TYPE = 0
CLASSIFICATION_TYPE = U
NORAD_CAT_ID   = 53494
ELEMENT_SET_NO = 999
REV_AT_EPOCH   = 130
BSTAR          = -.13774E-1
MEAN_MOTION_DOT = -.1215825E-1
MEAN_MOTION_DDOT = 0

CCSDS_OMM_VERS = 2.0
CREATION_DATE  = 
ORIGINATOR     = 

OBJECT_NAME    = STARLINK-4429
OBJECT_ID      = 2022-099AG
CENTER_NAME    = EARTH
REF_FRAME      = TEME
TIME_SYSTEM    = UTC
MEAN_ELEMENT_THEORY = SGP/SGP4

EPOCH          = 2022-08-29T22:00:00.999936
MEAN_MOTION    = 15.65091058
ECCENTRICITY   = .0001785
INCLINATION    = 97.6556
RA_OF_ASC_NODE = 0.7400
ARG_OF_PERICENTER = 61.4781
MEAN_ANOMALY   = 350.3775

EPHEMERIS_TYPE = 0
CLASSIFICATION_TYPE = U
NORAD_CAT_ID   = 53495
ELEMENT_SET_NO = 999
REV_AT_EPOCH   = 130
BSTAR          = -.13752E-1
MEAN_MOTION_DOT = -.1215563E-1
MEAN_MOTION_DDOT = 0

CCSDS_OMM_VERS = 2.0
CREATION_DATE  = 
ORIGINATOR     = 

OBJECT_NAME    = STARLINK-4465
OBJECT_ID      = 2022-099AH
CENTER_NAME    = EARTH
REF_FRAME      = TEME
TIME_SYSTEM    = UTC
MEAN_ELEMENT_THEORY = SGP/SGP4

EPOCH          = 2022-08-30T06:00:00.999648
MEAN_MOTION    = 15.64194855
ECCENTRICITY   = .000178
INCLINATION    = 97.6555
RA_OF_ASC_NODE = 1.1022
ARG_OF_PERICENTER = 75.7921
MEAN_ANOMALY   = 50.4294

EPHEMERIS_TYPE = 0
CLASSIFICATION_TYPE = U
NORAD_CAT_ID   = 53496
ELEMENT_SET_NO = 999
REV_AT_EPOCH   = 297
BSTAR          = -.14154E-1
MEAN_MOTION_DOT = -.1208083E-1
MEAN_MOTION_DDOT = 0

