STARLINK-4430           
1 53485U 22099W   22241.91667824 -.01215690  00000+0 -13792-1 0  9999
2 53485  97.6556   0.7401 0001973  49.1812 356.1990 15.65019359  1303
STARLINK-4431           
1 53486U 22099X   22241.91667824 -.01215129  00000+0 -13798-1 0  9993
2 53486  97.6556   0.7399 0001779  60.9458 342.4904 15.64997542  1302
STARLINK-4432           
1 53487U 22099Y   22241.91667824 -.01215663  00000+0 -13784-1 0  9992
2 53487  97.6556   0.7399 0001932  51.3396 355.3362 15.65033695  1301
STARLINK-4421           
1 53488U 22099Z   22241.91667824 -.01215303  00000+0 -13792-1 0  9993
2 53488  97.6556   0.7401 0001825  57.6579 347.0744 15.65011988  1302
STARLINK-4392           
1 53489U 22099AA  22241.91667824 -.01215540  00000+0 -13775-1 0  9998
2 53489  97.6556   0.7401 0001854  56.0084 351.9628 15.65048012  1302
STARLINK-4387           
1 53490U 22099AB  22241.91667824 -.01215475  00000+0 -13786-1 0  9999
2 53490  97.6556   0.7399 0001865  55.1515 350.8765 15.65026432  1303
STARLINK-4450           
1 53491U 22099AC  22241.91667824 -.01215520  00000+0 -13767-1 0  9990
2 53491  97.6556   0.7400 0001828  57.9183 351.3479 15.65062362  1307
STARLINK-4451           
1 53492U 22099AD  22241.91667824 -.01215641  00000+0 -13780-1 0  9990
2 53492  97.6556   0.7398 0001891  53.6907 353.6329 15.65040865  1304
STARLINK-4361           
1 53493U 22099AE  22241.91667824 -.01215222  00000+0 -13756-1 0  9999
2 53493  97.6556   0.7398 0001730  66.3764 344.1847 15.65076529  1305
STARLINK-4340           
1 53494U 22099AF  22241.91667824 -.01215825  00000+0 -13774-1 0  9999
2 53494  97.6556   0.7399 0001961  50.0280 358.5907 15.65055288  1301
STARLINK-4429           
1 53495U 22099AG  22241.91667824 -.01215563  00000+0 -13752-1 0  9995
2 53495  97.6556   0.7400 0001785  61.4781 350.3775 15.65091058  1309
STARLINK-4465           
1 53496U 22099AH  22242.25001157 -.01208083  00000+0 -14154-1 0  9991
2 53496  97.6555   1.1022 0001780  75.7921  50.4294 15.64194855  2979
